OBJECT_NAME,OBJECT_ID,EPOCH,MEAN_MOTION,ECCENTRICITY,INCLINATION,RA_OF_ASC_NODE,ARG_OF_PERICENTER,MEAN_ANOMALY,EPHEMERIS_TYPE,CLASSIFICATION_TYPE,NORAD_CAT_ID,ELEMENT_SET_NO,REV_AT_EPOCH,BSTAR,MEAN_MOTION_DOT,MEAN_MOTION_DDOT
HAWK-5A,2022-057AB,2026-06-11T22:45:01.971936,15.51205572,.00058785,97.6591,321.4589,94.4450,265.7473,0,U,52757,999,22553,.30235172E-3,.17606E-3,0
HAWK-6B,2023-011A,2026-06-10T22:52:40.676448,15.22872392,.00035018,40.4991,28.4311,327.0265,33.0326,0,U,55324,999,18689,.17994917E-3,.4111E-4,0
HAWK-6C,2023-011C,2026-06-09T09:05:18.780576,15.22867772,.00043141,40.4982,34.4522,308.3612,51.6810,0,U,55326,999,18666,.18394517E-3,.4206E-4,0
HAWK-6A,2023-011D,2026-06-11T08:18:23.285376,15.22877524,.0003768,40.4992,24.6026,316.5498,43.5014,0,U,55327,999,18696,.17656E-3,.4031E-4,0
HAWK-7A,2023-054P,2026-06-11T22:25:51.710592,15.27302431,.00045834,97.2713,50.4048,66.3148,293.8572,0,U,56191,999,17622,.10936717E-3,.2853E-4,0
HAWK-7B,2023-054R,2026-06-11T16:08:21.175584,15.27306798,.0003953,97.2743,48.4123,79.1606,281.0078,0,U,56193,999,17618,.20009182E-3,.528E-4,0
HAWK-7C,2023-054Y,2026-06-11T16:08:12.036192,15.27303353,.00039808,97.2718,49.1826,71.3490,288.8182,0,U,56200,999,17618,.19679649E-3,.5192E-4,0
